IRIDIUM 150             
1 43257U 18030J   24019.85550271 -.00000013  00000+0 -11635-4 0  9997
2 43257  86.3976 297.9620 0001615  67.9556 292.1812 14.34215988304128
IRIDIUM 143             
1 43258U 18030K   24019.83647258  .00000415  00000+0  14103-3 0  9994
2 43258  86.3981 298.0277 0001684  85.0959 275.0429 14.34216584304058
IRIDIUM 161             
1 43478U 18047C   24019.70725753  .00000688  00000+0  19848-3 0  9992
2 43478  86.4480  96.0629 0002182  92.9337 267.2114 14.43309299298282
IRIDIUM 152             
1 43479U 18047D   24019.73942411  .00000060  00000+0  14494-4 0  9995
2 43479  86.3954  95.9086 0002059 102.2650 257.8776 14.34216576296438
IRIDIUM 147             
1 43480U 18047E   24019.60622926  .00000091  00000+0  25494-4 0  9995
2 43480  86.3958  95.9543 0002275  91.4291 268.7166 14.34217633296419
IRIDIUM 110             
1 43481U 18047F   24019.75210999  .00000019  00000+0 -34503-6 0  9999
2 43481  86.3960  95.9627 0002329  83.0360 277.1101 14.34217079296428
IRIDIUM 162             
1 43482U 18047G   24019.70101871  .00000683  00000+0  19704-3 0  9992
2 43482  86.4479  95.9677 0002174  92.8243 267.3207 14.43307582298278
IRIDIUM 160             
1 43569U 18061A   24019.62817708  .00000036  00000+0  59084-5 0  9997
2 43569  86.3938  64.3616 0002578  99.2755 260.8732 14.34216679287302
